#aV2011  5 25  0  0   .00000000      96 DD+AD WGS84 FIT  NGA
## 1637 259200.00000000   900.00000000 55706  .0000000000000
+   31     2  3  4  5  6  7  8  9 10 11 12 13 14 15 16 17 18
+         19 20 21 22 23 24 25 26 27 28 29 30 31 32  0  0  0
+          0  0  0  0  0  0  0  0  0  0  0  0  0  0  0  0  0
+          0  0  0  0  0  0  0  0  0  0  0  0  0  0  0  0  0
+          0  0  0  0  0  0  0  0  0  0  0  0  0  0  0  0  0
++         0  0  0  0  0  0  0  0  0  0  0  0  0  0  0  0  0
++         0  0  0  0  0  0  0  0  0  0  0  0  0  0  0  0  0
++         0  0  0  0  0  0  0  0  0  0  0  0  0  0  0  0  0
++         0  0  0  0  0  0  0  0  0  0  0  0  0  0  0  0  0
++         0  0  0  0  0  0  0  0  0  0  0  0  0  0  0  0  0
%c cc cc ccc ccc cccc cccc cccc cccc ccccc ccccc ccccc ccccc
%c cc cc ccc ccc cccc cccc cccc cccc ccccc ccccc ccccc ccccc
%f  0.0000000  0.000000000  0.00000000000  0.000000000000000
%f  0.0000000  0.000000000  0.00000000000  0.000000000000000
%i    0    0    0    0      0      0      0      0         0
%i    0    0    0    0      0      0      0      0         0
/*      NGA, ST. LOUIS,MO.                                  
/*   EPHEMERIS COMPUTED FROM  3 DAYS OF DATA                
/* CCCCCCCCCCCCCCCCCCCCCCCCCCCCCCCCCCCCCCCCCCCCCCCCCCCCCCCCC
/* CCCCCCCCCCCCCCCCCCCCCCCCCCCCCCCCCCCCCCCCCCCCCCCCCCCCCCCCC
*  2011  5 25 11 30   .00000000                                                 
P  2  21308.813809 -10570.141572 -11244.645048    338.236416                    
V  2  -7562.126666  12908.774980 -26834.217515       .020182                    
P  3 -14852.704992   5188.060344  20988.897988    719.684070                    
V  3 -10835.060475 -25551.036581  -1009.681773       .049663                    
P  4  18171.658226   1968.047787 -19589.313746    125.326086                    
V  4 -16165.879599  18326.606248 -12951.746199       .107379                    
P  5  23386.617619  -3070.252878  12296.840144   -164.871880                    
V  5  14546.045526   6169.125531 -25985.332262      -.057002                    
P  6 -16368.921042    172.489917  21104.257445    356.503048                    
V  6  -7997.515718 -25268.178194  -5812.047507      -.899300                    
P  7   1961.863245  17284.731015  20006.834040     12.114707                    
V  7 -18702.303147  17263.061099 -13288.249737       .012718                    
P  8  10739.035969   9781.547026  22277.988206      8.008440                    
V  8 -21358.803611  18280.787925   1737.834079       .000179                    
P  9  13922.122876 -21666.515104  -7039.112103     82.135278                    
V  9   6986.831738  -4662.975544  30592.834107       .024573                    
P 10  25076.662954   9005.772337  -2732.713308     -1.650004                    
V 10  -3818.877983   1864.264797 -31012.223096      -.011981                    
P 11 -11741.042058  23566.699697  -1861.019033   -153.798925                    
V 11  -5667.784913   -877.470950  30137.502553      -.032429                    
P 12   7218.796025 -13320.571750 -21778.619724     -2.148118                    
V 12  26598.088568   7661.615729   4297.683254       .026838                    
P 13   4607.859940  26115.357204   -731.172108    268.545805                    
V 13  -2058.468098   -362.086872 -32404.676920      -.021909                    
P 14 -13992.390294 -16744.039344 -15084.044793    152.062768                    
V 14  -2691.518449 -19205.110326  23431.807773       .022300                    
P 15   6712.331033 -19373.253556  16798.656902   -125.835386                    
V 15   8180.393806  19904.751715  19854.112139       .024987                    
P 16 -23888.263904   1385.078516  11877.987797   -174.505620                    
V 16 -13826.182962  -5838.258981 -26879.553195      -.026040                    
P 17  14724.156167  16496.161893 -14738.826072    184.201289                    
V 17   2656.320108  18784.809998  23235.805904      -.002155                    
P 18 -14863.838087 -16045.826344  15636.770023    138.785784                    
V 18  19124.453954   2926.793307  21246.842363       .019590                    
P 19 -10198.214239  15890.271989  18532.416585   -144.260879                    
V 19  -6145.144527 -22924.437745  16619.560311      -.039998                    
P 20  -3424.618252  15497.505447 -21441.615853     49.486368                    
V 20 -26382.740256  -5717.080266    142.971182       .002004                    
P 21  -5199.780686 -16395.010965  20516.135713   -146.637900                    
V 21  18868.472277 -17040.192158  -9637.903359      -.026077                    
P 22 -23434.291534 -11165.077319   6064.541268    148.301707                    
V 22   8151.508721  -1357.011001  29735.968969      -.007416                    
P 23  -2432.032742  23333.038802 -12111.415170    304.003433                    
V 23  -6441.677507 -14323.308042 -26638.225076      -.027200                    
P 24 -12766.466434  21043.054132  -9546.538195    392.915196                    
V 24 -11179.397140   6035.351747  28370.158848       .032531                    
P 25  -7350.283723 -15989.225253 -19920.812463      1.059383                    
V 25  24788.034670   4851.353007 -13026.942412       .012769                    
P 26  12988.841691  -7125.998529  21405.390645    -40.566342                    
V 26   6182.528035  27925.644595   5784.901018      -.111399                    
P 27  17717.519633 -19537.641264    330.493043    268.476729                    
V 27   2085.143342   1363.784651  32418.295512       .038262                    
P 28  21131.184123  13339.229762   9884.799579     40.149762                    
V 28 -11734.593541  -1627.124796  28553.549566       .025017                    
P 29  -3933.891183 -26082.191108  -3251.332848    210.163996                    
V 29   3650.588489   3462.642231 -31380.826993       .028812                    
P 30 -26148.656050  -3574.296936   2698.109908      3.175520                    
V 30  -3262.507062  -3558.961575 -31494.851773       .045261                    
P 31 -18775.010411   1111.004064 -18641.380439     85.493419                    
V 31  16129.702381 -17755.867565 -16914.345503       .055601                    
P 32 -12486.600497  10899.690039 -20382.564063   -260.623898                    
V 32 -24748.231873  -9922.825336  10128.540309      -.072153                    
EOF
